zip,city,county
20001,"Washington, DC ",District Of Columbia 
20002,"Washington, DC ",District Of Columbia 
20003,"Washington, DC ",District Of Columbia 
20004,"Washington, DC ",District Of Columbia 
20005,"Washington, DC ",District Of Columbia 
20006,"Washington, DC ",District Of Columbia 
20007,"Washington, DC ",District Of Columbia 
20008,"Washington, DC ",District Of Columbia 
20009,"Washington, DC ",District Of Columbia 
20010,"Washington, DC ",District Of Columbia 
20011,"Washington, DC ",District Of Columbia 
20012,"Washington, DC ",District Of Columbia 
20013,"Washington, DC ",District Of Columbia 
20015,"Washington, DC ",District Of Columbia 
20016,"Washington, DC ",District Of Columbia 
20017,"Washington, DC ",District Of Columbia 
20018,"Washington, DC ",District Of Columbia 
20019,"Washington, DC ",District Of Columbia 
20020,"Washington, DC ",District Of Columbia 
20022,"Washington, DC ",District Of Columbia 
20023,"Washington, DC ",District Of Columbia 
20024,"Washington, DC ",District Of Columbia 
20026,"Washington, DC ",District Of Columbia 
20027,"Washington, DC ",District Of Columbia 
20029,"Washington, DC ",District Of Columbia 
20030,"Washington, DC ",District Of Columbia 
20032,"Washington, DC ",District Of Columbia 
20033,"Washington, DC ",District Of Columbia 
20035,"Washington, DC ",District Of Columbia 
20036,"Washington, DC ",District Of Columbia 
20037,"Washington, DC ",District Of Columbia 
20038,"Washington, DC ",District Of Columbia 
20039,"Washington, DC ",District Of Columbia 
20040,"Washington, DC ",District Of Columbia 
20041,"Washington, DC ",District Of Columbia 
20042,"Washington, DC ",District Of Columbia 
20043,"Washington, DC ",District Of Columbia 
20044,"Washington, DC ",District Of Columbia 
20045,"Washington, DC ",District Of Columbia 
20046,"Washington, DC ",District Of Columbia 
20047,"Washington, DC ",District Of Columbia 
20049,"Washington, DC ",District Of Columbia 
20050,"Washington, DC ",District Of Columbia 
20051,"Washington, DC ",District Of Columbia 
20052,"Washington, DC ",District Of Columbia 
20053,"Washington, DC ",District Of Columbia 
20055,"Washington, DC ",District Of Columbia 
20056,"Washington, DC ",District Of Columbia 
20057,"Washington, DC ",District Of Columbia 
20058,"Washington, DC ",District Of Columbia 
20059,"Washington, DC ",District Of Columbia 
20060,"Washington, DC ",District Of Columbia 
20061,"Washington, DC ",District Of Columbia 
20062,"Washington, DC ",District Of Columbia 
20063,"Washington, DC ",District Of Columbia 
20064,"Washington, DC ",District Of Columbia 
20065,"Washington, DC ",District Of Columbia 
20066,"Washington, DC ",District Of Columbia 
20067,"Washington, DC ",District Of Columbia 
20068,"Washington, DC ",District Of Columbia 
20069,"Washington, DC ",District Of Columbia 
20070,"Washington, DC ",District Of Columbia 
20071,"Washington, DC ",District Of Columbia 
20073,"Washington, DC ",District Of Columbia 
20074,"Washington, DC ",District Of Columbia 
20075,"Washington, DC ",District Of Columbia 
20076,"Washington, DC ",District Of Columbia 
20077,"Washington, DC ",District Of Columbia 
20078,"Washington, DC ",District Of Columbia 
20080,"Washington, DC ",District Of Columbia 
20081,"Washington, DC ",District Of Columbia 
20082,"Washington, DC ",District Of Columbia 
20088,"Washington, DC ",District Of Columbia 
20090,"Washington, DC ",District Of Columbia 
20091,"Washington, DC ",District Of Columbia 
20097,"Washington, DC ",District Of Columbia 
20098,"Washington, DC ",District Of Columbia 
20201,"Washington, DC ",District Of Columbia 
20202,"Washington, DC ",District Of Columbia 
20203,"Washington, DC ",District Of Columbia 
20204,"Washington, DC ",District Of Columbia 
20206,"Washington, DC ",District Of Columbia 
20207,"Washington, DC ",District Of Columbia 
20208,"Washington, DC ",District Of Columbia 
20210,"Washington, DC ",District Of Columbia 
20211,"Washington, DC ",District Of Columbia 
20212,"Washington, DC ",District Of Columbia 
20213,"Washington, DC ",District Of Columbia 
20214,"Washington, DC ",District Of Columbia 
20215,"Washington, DC ",District Of Columbia 
20216,"Washington, DC ",District Of Columbia 
20217,"Washington, DC ",District Of Columbia 
20218,"Washington, DC ",District Of Columbia 
20219,"Washington, DC ",District Of Columbia 
20220,"Washington, DC ",District Of Columbia 
20221,"Washington, DC ",District Of Columbia 
20222,"Washington, DC ",District Of Columbia 
20223,"Washington, DC ",District Of Columbia 
20224,"Washington, DC ",District Of Columbia 
20226,"Washington, DC ",District Of Columbia 
20227,"Washington, DC ",District Of Columbia 
20228,"Washington, DC ",District Of Columbia 
20229,"Washington, DC ",District Of Columbia 
20230,"Washington, DC ",District Of Columbia 
20232,"Washington, DC ",District Of Columbia 
20233,"Washington, DC ",District Of Columbia 
20235,"Washington, DC ",District Of Columbia 
20237,"Washington, DC ",District Of Columbia 
20238,"Washington, DC ",District Of Columbia 
20239,"Washington, DC ",District Of Columbia 
20240,"Washington, DC ",District Of Columbia 
20241,"Washington, DC ",District Of Columbia 
20242,"Washington, DC ",District Of Columbia 
20244,"Washington, DC ",District Of Columbia 
20245,"Washington, DC ",District Of Columbia 
20250,"Washington, DC ",District Of Columbia 
20251,"Washington, DC ",District Of Columbia 
20254,"Washington, DC ",District Of Columbia 
20260,"Washington, DC ",District Of Columbia 
20261,"Washington, DC ",District Of Columbia 
20262,"Washington, DC ",District Of Columbia 
20265,"Washington, DC ",District Of Columbia 
20266,"Washington, DC ",District Of Columbia 
20268,"Washington, DC ",District Of Columbia 
20270,"Washington, DC ",District Of Columbia 
20277,"Washington, DC ",District Of Columbia 
20289,"Washington, DC ",District Of Columbia 
20299,"Washington, DC ",District Of Columbia 
20301,"Washington, DC ",District Of Columbia 
20303,"Washington, DC ",District Of Columbia 
20306,"Washington, DC ",District Of Columbia 
20307,"Washington, DC ",District Of Columbia 
20310,"Washington, DC ",District Of Columbia 
20314,"Washington, DC ",District Of Columbia 
20317,"Washington, DC ",District Of Columbia 
20318,"Washington, DC ",District Of Columbia 
20319,"Washington, DC ",District Of Columbia 
20330,"Washington, DC ",District Of Columbia 
20340,"Washington, DC ",District Of Columbia 
20350,"Washington, DC ",District Of Columbia 
20355,"Washington, DC ",District Of Columbia 
20370,"Washington, DC ",District Of Columbia 
20372,"Washington, DC ",District Of Columbia 
20373,"Naval Anacost Annex, DC ",District Of Columbia 
20374,"Washington Navy Yard, DC ",District Of Columbia 
20375,"Washington, DC ",District Of Columbia 
20376,"Washington Navy Yard, DC ",District Of Columbia 
20380,"Washington, DC ",District Of Columbia 
20388,"Washington Navy Yard, DC ",District Of Columbia 
20389,"Washington, DC ",District Of Columbia 
20390,"Washington, DC ",District Of Columbia 
20391,"Washington Navy Yard, DC ",District Of Columbia 
20392,"Washington, DC ",District Of Columbia 
20393,"Washington, DC ",District Of Columbia 
20394,"Washington, DC ",District Of Columbia 
20395,"Washington, DC ",District Of Columbia 
20398,"Washington Navy Yard, DC ",District Of Columbia 
20401,"Washington, DC ",District Of Columbia 
20402,"Washington, DC ",District Of Columbia 
20403,"Washington, DC ",District Of Columbia 
20404,"Washington, DC ",District Of Columbia 
20405,"Washington, DC ",District Of Columbia 
20406,"Washington, DC ",District Of Columbia 
20407,"Washington, DC ",District Of Columbia 
20408,"Washington, DC ",District Of Columbia 
20409,"Washington, DC ",District Of Columbia 
20410,"Washington, DC ",District Of Columbia 
20411,"Washington, DC ",District Of Columbia 
20412,"Washington, DC ",District Of Columbia 
20413,"Washington, DC ",District Of Columbia 
20414,"Washington, DC ",District Of Columbia 
20415,"Washington, DC ",District Of Columbia 
20416,"Washington, DC ",District Of Columbia 
20418,"Washington, DC ",District Of Columbia 
20419,"Washington, DC ",District Of Columbia 
20420,"Washington, DC ",District Of Columbia 
20421,"Washington, DC ",District Of Columbia 
20422,"Washington, DC ",District Of Columbia 
20423,"Washington, DC ",District Of Columbia 
20424,"Washington, DC ",District Of Columbia 
20425,"Washington, DC ",District Of Columbia 
20426,"Washington, DC ",District Of Columbia 
20427,"Washington, DC ",District Of Columbia 
20428,"Washington, DC ",District Of Columbia 
20429,"Washington, DC ",District Of Columbia 
20431,"Washington, DC ",District Of Columbia 
20433,"Washington, DC ",District Of Columbia 
20434,"Washington, DC ",District Of Columbia 
20435,"Washington, DC ",District Of Columbia 
20436,"Washington, DC ",District Of Columbia 
20437,"Washington, DC ",District Of Columbia 
20439,"Washington, DC ",District Of Columbia 
20440,"Washington, DC ",District Of Columbia 
20441,"Washington, DC ",District Of Columbia 
20442,"Washington, DC ",District Of Columbia 
20444,"Washington, DC ",District Of Columbia 
20447,"Washington, DC ",District Of Columbia 
20451,"Washington, DC ",District Of Columbia 
20453,"Washington, DC ",District Of Columbia 
20456,"Washington, DC ",District Of Columbia 
20460,"Washington, DC ",District Of Columbia 
20463,"Washington, DC ",District Of Columbia 
20468,"Washington, DC ",District Of Columbia 
20469,"Washington, DC ",District Of Columbia 
20470,"Washington, DC ",District Of Columbia 
20472,"Washington, DC ",District Of Columbia 
20500,"Washington, DC ",District Of Columbia 
20501,"Washington, DC ",District Of Columbia 
20502,"Washington, DC ",District Of Columbia 
20503,"Washington, DC ",District Of Columbia 
20504,"Washington, DC ",District Of Columbia 
20505,"Washington, DC ",District Of Columbia 
20506,"Washington, DC ",District Of Columbia 
20507,"Washington, DC ",District Of Columbia 
20508,"Washington, DC ",District Of Columbia 
20509,"Washington, DC ",District Of Columbia 
20510,"Washington, DC ",District Of Columbia 
20511,"Washington, DC ",District Of Columbia 
20515,"Washington, DC ",District Of Columbia 
20520,"Washington, DC ",District Of Columbia 
20521,"Washington, DC ",District Of Columbia 
20522,"Washington, DC ",District Of Columbia 
20523,"Washington, DC ",District Of Columbia 
20524,"Washington, DC ",District Of Columbia 
20525,"Washington, DC ",District Of Columbia 
20526,"Washington, DC ",District Of Columbia 
20527,"Washington, DC ",District Of Columbia 
20528,"Washington, DC ",District Of Columbia 
20529,"Washington, DC ",District Of Columbia 
20530,"Washington, DC ",District Of Columbia 
20531,"Washington, DC ",District Of Columbia 
20532,"Washington, DC ",District Of Columbia 
20533,"Washington, DC ",District Of Columbia 
20534,"Washington, DC ",District Of Columbia 
20535,"Washington, DC ",District Of Columbia 
20536,"Washington, DC ",District Of Columbia 
20537,"Washington, DC ",District Of Columbia 
20538,"Washington, DC ",District Of Columbia 
20539,"Washington, DC ",District Of Columbia 
20540,"Washington, DC ",District Of Columbia 
20541,"Washington, DC ",District Of Columbia 
20542,"Washington, DC ",District Of Columbia 
20543,"Washington, DC ",District Of Columbia 
20544,"Washington, DC ",District Of Columbia 
20546,"Washington, DC ",District Of Columbia 
20547,"Washington, DC ",District Of Columbia 
20548,"Washington, DC ",District Of Columbia 
20549,"Washington, DC ",District Of Columbia 
20551,"Washington, DC ",District Of Columbia 
20552,"Washington, DC ",District Of Columbia 
20553,"Washington, DC ",District Of Columbia 
20554,"Washington, DC ",District Of Columbia 
20555,"Washington, DC ",District Of Columbia 
20557,"Washington, DC ",District Of Columbia 
20558,"Washington, DC ",District Of Columbia 
20559,"Washington, DC ",District Of Columbia 
20560,"Washington, DC ",District Of Columbia 
20565,"Washington, DC ",District Of Columbia 
20566,"Washington, DC ",District Of Columbia 
20570,"Washington, DC ",District Of Columbia 
20571,"Washington, DC ",District Of Columbia 
20572,"Washington, DC ",District Of Columbia 
20573,"Washington, DC ",District Of Columbia 
20575,"Washington, DC ",District Of Columbia 
20576,"Washington, DC ",District Of Columbia 
20577,"Washington, DC ",District Of Columbia 
20578,"Washington, DC ",District Of Columbia 
20579,"Washington, DC ",District Of Columbia 
20580,"Washington, DC ",District Of Columbia 
20581,"Washington, DC ",District Of Columbia 
20585,"Washington, DC ",District Of Columbia 
20586,"Washington, DC ",District Of Columbia 
20590,"Washington, DC ",District Of Columbia 
20591,"Washington, DC ",District Of Columbia 
20593,"Washington, DC ",District Of Columbia 
20594,"Washington, DC ",District Of Columbia 
20597,"Washington, DC ",District Of Columbia 
20599,"Washington, DC ",District Of Columbia 
20697,"Southern Md Facility, MD ",Prince Georges 
20703,"Lanham, MD ",Prince Georges 
20704,"Beltsville, MD ",Prince Georges 
20709,"Laurel, MD ",Prince Georges 
20710,"Bladensburg, MD ",Prince Georges 
20712,"Mount Rainier, MD ",Prince Georges 
20717,"Bowie, MD ",Prince Georges 
20718,"Bowie, MD ",Prince Georges 
20719,"Bowie, MD ",Prince Georges 
20722,"Brentwood, MD ",Prince Georges 
20725,"Laurel, MD ",Prince Georges 
20726,"Laurel, MD ",Prince Georges 
20731,"Capitol Heights, MD ",Prince Georges 
20737,"Riverdale, MD ",Prince Georges 
20738,"Riverdale, MD ",Prince Georges 
20740,"College Park, MD ",Prince Georges 
20741,"College Park, MD ",Prince Georges 
20742,"College Park, MD ",Prince Georges 
20743,"Capitol Heights, MD ",Prince Georges  
20745,"Oxon Hill, MD ",Prince Georges 
20747,"District Heights, MD ",Prince Georges 
20748,"Temple Hills, MD ",Prince Georges 
20749,"Fort Washington, MD ",Prince Georges 
20750,"Oxon Hill, MD ",Prince Georges  
20753,"District Heights, MD ",Prince Georges 
20757,"Temple Hills, MD ",Prince Georges 
20762,"Andrews Air Force Base, MD ",Prince Georges 
20768,"Greenbelt, MD ",Prince Georges 
20771,"Greenbelt, MD ",Prince Georges 
20773,"Upper Marlboro, MD ",Prince Georges 
20775,"Upper Marlboro, MD ",Prince Georges 
20781,"Hyattsville, MD ",Prince Georges 
20782,"Hyattsville, MD ",Prince Georges 
20783,"Hyattsville, MD ",Prince Georges 
20784,"Hyattsville, MD ",Prince Georges 
20785,"Hyattsville, MD ",Prince Georges 
20787,"Hyattsville, MD ",Prince Georges 
20788,"Hyattsville, MD ",Prince Georges 
20790,"Capitol Heights, MD ",Prince Georges 
20791,"Capitol Heights, MD ",Prince Georges 
20797,"Southern Md Facility, MD ",Prince Georges 
20799,"Capitol Heights, MD ",Prince Georges 
20810,"Bethesda, MD ",Montgomery 
20811,"Bethesda, MD ",Montgomery 
20812,"Glen Echo, MD ",Montgomery 
20814,"Bethesda, MD ",Montgomery 
20815,"Chevy Chase, MD ",Montgomery 
20816,"Bethesda, MD ",Montgomery 
20817,"Bethesda, MD ",Montgomery 
20818,"Cabin John, MD ",Montgomery 
20892,"Bethesda, MD ",Montgomery 
20895,"Kensington, MD ",Montgomery 
20901,"Silver Spring, MD ",Montgomery 
20903,"Silver Spring, MD ",Montgomery 
20910,"Silver Spring, MD ",Montgomery 
20912,"Takoma Park, MD ",Montgomery 
20913,"Takoma Park, MD ",Montgomery 
22027,"Dunn Loring, VA ",Fairfax 
22040,"Falls Church, VA ",Falls Church City 
22041,"Falls Church, VA ",Fairfax 
22042,"Falls Church, VA ",Fairfax 
22043,"Falls Church, VA ",Fairfax 
22044,"Falls Church, VA ",Fairfax 
22046,"Falls Church, VA ",Falls Church City 
22101,"Mc Lean, VA ",Fairfax 
22106,"Mc Lean, VA ",Fairfax 
22107,"Mc Lean, VA ",Fairfax 
22108,"Mc Lean, VA ",Fairfax 
22109,"Mc Lean, VA ",Fairfax 
22201,"Arlington, VA ",Arlington 
22202,"Arlington, VA ",Arlington 
22203,"Arlington, VA ",Arlington 
22204,"Arlington, VA ",Arlington 
22205,"Arlington, VA ",Arlington 
22206,"Arlington, VA ",Arlington 
22207,"Arlington, VA ",Arlington 
22209,"Arlington, VA ",Arlington 
22210,"Arlington, VA ",Arlington 
22211,"Ft Myer, VA ",Arlington 
22212,"Arlington, VA ",Arlington 
22213,"Arlington, VA ",Arlington 
22214,"Arlington, VA ",Arlington 
22215,"Arlington, VA ",Arlington 
22216,"Arlington, VA ",Arlington 
22217,"Arlington, VA ",Arlington 
22218,"Arlington, VA ",Arlington 
22219,"Arlington, VA ",Arlington 
22222,"Arlington, VA ",Arlington 
22223,"Arlington, VA ",Arlington 
22225,"Arlington, VA ",Arlington 
22226,"Arlington, VA ",Arlington 
22227,"Arlington, VA ",Arlington 
22229,"Arlington, VA ",Arlington 
22230,"Arlington, VA ",Arlington 
22234,"Arlington, VA ",Arlington 
22240,"Arlington, VA ",Arlington 
22241,"Arlington, VA ",Arlington 
22242,"Arlington, VA ",Arlington 
22243,"Arlington, VA ",Arlington 
22244,"Arlington, VA ",Arlington 
22245,"Arlington, VA ",Arlington 
22246,"Arlington, VA ",Arlington 
22301,"Alexandria, VA ",Alexandria City 
22302,"Alexandria, VA ",Alexandria City 
22303,"Alexandria, VA ",Fairfax 
22304,"Alexandria, VA ",Alexandria City 
22305,"Alexandria, VA ",Alexandria City 
22306,"Alexandria, VA ",Fairfax 
22307,"Alexandria, VA ",Fairfax 
22310,"Alexandria, VA ",Fairfax 
22311,"Alexandria, VA ",Alexandria City 
22312,"Alexandria, VA ",Fairfax 
22313,"Alexandria, VA ",Alexandria City 
22314,"Alexandria, VA ",Alexandria City 
22320,"Alexandria, VA ",Alexandria City 
22331,"Alexandria, VA ",Alexandria City 
22332,"Alexandria, VA ",Alexandria City 
22333,"Alexandria, VA ",Alexandria City 
22334,"Alexandria, VA ",Alexandria City 
22336,"Alexandria, VA ",Alexandria City 
56901,"Washington, DC ",District Of Columbia 
56915,"Washington, DC ",District Of Columbia 
56920,"Washington, DC ",District Of Columbia 
56933,"Washington, DC ",District Of Columbia 
56944,"Washington, DC ",District Of Columbia 
56972,"Washington, DC ",District Of Columbia
22003,"Annandale, VA", Virginia
22151,"North Springfield, VA", Virginia
22102,"Tysons Corner, VA", Virginia
22070,"Greenbelt, MD", Maryland
20706,"Glenarden, MD", Maryland
20746,"Camp Springs, MD", Maryland